GLOBALSTAR M075         
1 37192U 10054E   25159.63557564 -.00000067  00000+0  20263-3 0  9994
2 37192  51.9925 207.5753 0000238 136.4085  32.5862 12.62265712674764
GLOBALSTAR M073         
1 37193U 10054F   25159.63596469 -.00000113  00000+0 -49285-4 0  9991
2 37193  52.0045 121.3845 0000407  11.7637 158.6163 12.62272056676755
GLOBALSTAR M083         
1 37739U 11033A   25159.77386164 -.00000107  00000+0 -18377-4 0  9990
2 37739  51.9867  69.7081 0000481  67.0309 309.8367 12.62263791645792
GLOBALSTAR M088         
1 37740U 11033B   25159.22707405 -.00000090  00000+0  74502-4 0  9999
2 37740  52.0063 336.9120 0000921 104.0183  67.5676 12.62265378641260
GLOBALSTAR M091         
1 37741U 11033C   25159.70017891 -.00000098  00000+0  29907-4 0  9993
2 37741  52.0009 298.9716 0000823 134.8055 327.8156 12.62268491642118
GLOBALSTAR M085         
1 37742U 11033D   25159.69844833 -.00000081  00000+0  12509-3 0  9997
2 37742  51.9863 250.0227 0000600 157.5330 357.6552 12.62269099642624
GLOBALSTAR M081         
1 37743U 11033E   25159.53553573 -.00000117  00000+0 -72727-4 0  9999
2 37743  51.9956 253.3021 0000417 159.7092 213.6373 12.62266172642756
GLOBALSTAR M089         
1 37744U 11033F   25159.52545544 -.00000070  00000+0  18773-3 0  9995
2 37744  51.9910 207.5606 0000217  72.9240  75.9974 12.62264555643598
